start=new Date('2021-11-22T00:00:00.000Z').valueOf();
sats=[{"COUNTRY_CODE":"US","BSTAR":"0.00015629000000","LAUNCH_DATE":"2021-02-16","REV_AT_EPOCH":"4376","OBJECT_NAME":"STARLINK-2059","MEAN_MOTION_DDOT":"0.0000000000000","RA_OF_ASC_NODE":"255.7953","TLE_LINE1":"1 47668U 21012BA  21325.54484624  .00002047  00000-0  15629-3 0  9996","RCS_SIZE":"LARGE","REF_FRAME":"TEME","MEAN_ANOMALY":"292.8723","TIME_SYSTEM":"UTC","TLE_LINE2":"2 47668  53.0539 255.7953 0001915  67.2468 292.8723 15.06398831 43760","MEAN_MOTION":"15.06398831","EPOCH":"2021-11-21T13:04:34.715136","INCLINATION":"53.0539","OBJECT_TYPE":"PAYLOAD","CENTER_NAME":"EARTH","APOAPSIS":"548.543","MEAN_MOTION_DOT":"0.00002047","PERIOD":"95.592","ECCENTRICITY":"0.00019150","MEAN_ELEMENT_THEORY":"SGP4","SEMIMAJOR_AXIS":"6925.352","DECAY_DATE":null,"GP_ID":"190204969","NORAD_CAT_ID":"47668","ELEMENT_SET_NO":"999","FILE":"3220686","OBJECT_ID":"2021-012BA","ARG_OF_PERICENTER":"67.2468","SITE":"AFETR","CLASSIFICATION_TYPE":"U","EPHEMERIS_TYPE":"0","PERIAPSIS":"545.891"},{"ECCENTRICITY":"0.00027660","MEAN_ELEMENT_THEORY":"SGP4","SEMIMAJOR_AXIS":"6925.316","DECAY_DATE":null,"ELEMENT_SET_NO":"999","FILE":"3220744","GP_ID":"190207524","NORAD_CAT_ID":"47669","SITE":"AFETR","OBJECT_ID":"2021-012BB","ARG_OF_PERICENTER":"61.4710","EPHEMERIS_TYPE":"0","PERIAPSIS":"545.266","CLASSIFICATION_TYPE":"U","LAUNCH_DATE":"2021-02-16","COUNTRY_CODE":"US","BSTAR":"-0.00119240000000","TLE_LINE1":"1 47669U 21012BB  21325.91667824 -.00018005  00000-0 -11924-2 0  9999","RCS_SIZE":"MEDIUM","REF_FRAME":"TEME","REV_AT_EPOCH":"4434","MEAN_MOTION_DDOT":"0.0000000000000","OBJECT_NAME":"STARLINK-2060","RA_OF_ASC_NODE":"179.1082","EPOCH":"2021-11-21T22:00:00.999936","MEAN_ANOMALY":"153.8969","TIME_SYSTEM":"UTC","TLE_LINE2":"2 47669  53.0510 179.1082 0002766  61.4710 153.8969 15.06410573 44344","MEAN_MOTION":"15.06410573","PERIOD":"95.591","OBJECT_TYPE":"PAYLOAD","INCLINATION":"53.0510","CENTER_NAME":"EARTH","APOAPSIS":"549.097","MEAN_MOTION_DOT":"-0.00018005"},{"EPOCH":"2021-11-21T05:28:06.755808","MEAN_MOTION":"15.06404627","TLE_LINE2":"2 47670  53.0544 257.1963 0008018  50.7292 309.4407 15.06404627 43708","TIME_SYSTEM":"UTC","MEAN_ANOMALY":"309.4407","PERIOD":"95.592","MEAN_MOTION_DOT":"0.00002533","APOAPSIS":"552.752","CENTER_NAME":"EARTH","INCLINATION":"53.0544","OBJECT_TYPE":"PAYLOAD","LAUNCH_DATE":"2021-02-16","BSTAR":"0.00018894000000","COUNTRY_CODE":"US","REF_FRAME":"TEME","RCS_SIZE":"LARGE","TLE_LINE1":"1 47670U 21012BC  21325.22785597  .00002533  00000-0  18894-3 0  9994","RA_OF_ASC_NODE":"257.1963","OBJECT_NAME":"STARLINK-2062","MEAN_MOTION_DDOT":"0.0000000000000","REV_AT_EPOCH":"4370","SITE":"AFETR","ARG_OF_PERICENTER":"50.7292","OBJECT_ID":"2021-012BC","PERIAPSIS":"541.647","EPHEMERIS_TYPE":"0","CLASSIFICATION_TYPE":"U","DECAY_DATE":null,"SEMIMAJOR_AXIS":"6925.334","MEAN_ELEMENT_THEORY":"SGP4","ECCENTRICITY":"0.00080180","FILE":"3220686","ELEMENT_SET_NO":"999","NORAD_CAT_ID":"47670","GP_ID":"190203468"},{"OBJECT_ID":"2021-012BD","ARG_OF_PERICENTER":"65.7193","SITE":"AFETR","CLASSIFICATION_TYPE":"U","PERIAPSIS":"545.869","EPHEMERIS_TYPE":"0","MEAN_ELEMENT_THEORY":"SGP4","ECCENTRICITY":"0.00019570","DECAY_DATE":null,"SEMIMAJOR_AXIS":"6925.359","GP_ID":"190207528","NORAD_CAT_ID":"47671","ELEMENT_SET_NO":"999","FILE":"3220745","TIME_SYSTEM":"UTC","MEAN_ANOMALY":"294.4000","TLE_LINE2":"2 47671  53.0553 255.8087 0001957  65.7193 294.4000 15.06396615 43240","MEAN_MOTION":"15.06396615","EPOCH":"2021-11-21T12:59:15.756576","OBJECT_TYPE":"PAYLOAD","INCLINATION":"53.0553","MEAN_MOTION_DOT":"0.00000072","APOAPSIS":"548.579","CENTER_NAME":"EARTH","PERIOD":"95.592","BSTAR":"0.00002373500000","COUNTRY_CODE":"US","LAUNCH_DATE":"2021-02-16","OBJECT_NAME":"STARLINK-2064","MEAN_MOTION_DDOT":"0.0000000000000","REV_AT_EPOCH":"4324","RA_OF_ASC_NODE":"255.8087","TLE_LINE1":"1 47671U 21012BD  21325.54115459  .00000072  00000-0  23735-4 0  9991","REF_FRAME":"TEME","RCS_SIZE":"LARGE"},{"NORAD_CAT_ID":"47672","GP_ID":"190204469","FILE":"3220686","ELEMENT_SET_NO":"999","DECAY_DATE":null,"SEMIMAJOR_AXIS":"6925.372","MEAN_ELEMENT_THEORY":"SGP4","ECCENTRICITY":"0.00027710","CLASSIFICATION_TYPE":"U","PERIAPSIS":"545.318","EPHEMERIS_TYPE":"0","ARG_OF_PERICENTER":"57.1389","OBJECT_ID":"2021-012BE","SITE":"AFETR","RA_OF_ASC_NODE":"245.8868","OBJECT_NAME":"STARLINK-2065","MEAN_MOTION_DDOT":"0.0000000000000","REV_AT_EPOCH":"4387","REF_FRAME":"TEME","RCS_SIZE":"LARGE","TLE_LINE1":"1 47672U 21012BE  21325.51996933 -.00000213  00000-0  46227-5 0  9993","BSTAR":"0.00000462270000","COUNTRY_CODE":"US","LAUNCH_DATE":"2021-02-16","MEAN_MOTION_DOT":"-0.00000213","APOAPSIS":"549.156","CENTER_NAME":"EARTH","OBJECT_TYPE":"PAYLOAD","INCLINATION":"53.0529","PERIOD":"95.593","TLE_LINE2":"2 47672  53.0529 245.8868 0002771  57.1389 302.9866 15.06392363 43877","MEAN_MOTION":"15.06392363","TIME_SYSTEM":"UTC","MEAN_ANOMALY":"302.9866","EPOCH":"2021-11-21T12:28:45.350112"},{"ELEMENT_SET_NO":"999","FILE":"3220686","GP_ID":"190205216","NORAD_CAT_ID":"47673","MEAN_ELEMENT_THEORY":"SGP4","ECCENTRICITY":"0.00019080","DECAY_DATE":null,"SEMIMAJOR_AXIS":"6925.363","PERIAPSIS":"545.907","EPHEMERIS_TYPE":"0","CLASSIFICATION_TYPE":"U","SITE":"AFETR","OBJECT_ID":"2021-012BF","ARG_OF_PERICENTER":"68.4554","TLE_LINE1":"1 47673U 21012BF  21325.23155213  .00004317  00000-0  30856-3 0  9998","REF_FRAME":"TEME","RCS_SIZE":"LARGE","MEAN_MOTION_DDOT":"0.0000000000000","OBJECT_NAME":"STARLINK-2066","REV_AT_EPOCH":"4370","RA_OF_ASC_NODE":"257.1835","LAUNCH_DATE":"2021-02-16","BSTAR":"0.00030856000000","COUNTRY_CODE":"US","PERIOD":"95.592","INCLINATION":"53.0549","OBJECT_TYPE":"PAYLOAD","MEAN_MOTION_DOT":"0.00004317","CENTER_NAME":"EARTH","APOAPSIS":"548.549","EPOCH":"2021-11-21T05:33:26.104032","TIME_SYSTEM":"UTC","MEAN_ANOMALY":"291.6638","MEAN_MOTION":"15.06395263","TLE_LINE2":"2 47673  53.0549 257.1835 0001908  68.4554 291.6638 15.06395263 43705"},{"COUNTRY_CODE":"US","BSTAR":"0.00010731000000","LAUNCH_DATE":"2021-02-16","RA_OF_ASC_NODE":"255.9209","REV_AT_EPOCH":"4323","OBJECT_NAME":"STARLINK-2067","MEAN_MOTION_DDOT":"0.0000000000000","RCS_SIZE":"LARGE","REF_FRAME":"TEME","TLE_LINE1":"1 47674U 21012BG  21325.51167348  .00001317  00000-0  10731-3 0  9999","TLE_LINE2":"2 47674  53.0540 255.9209 0001894  63.4644 296.6539 15.06394340 43235","MEAN_MOTION":"15.06394340","MEAN_ANOMALY":"296.6539","TIME_SYSTEM":"UTC","EPOCH":"2021-11-21T12:16:48.588672","CENTER_NAME":"EARTH","APOAPSIS":"548.543","MEAN_MOTION_DOT":"0.00001317","OBJECT_TYPE":"PAYLOAD","INCLINATION":"53.0540","PERIOD":"95.592","SEMIMAJOR_AXIS":"6925.366","DECAY_DATE":null,"ECCENTRICITY":"0.00018940","MEAN_ELEMENT_THEORY":"SGP4","NORAD_CAT_ID":"47674","GP_ID":"190207230","FILE":"3220745","ELEMENT_SET_NO":"999","ARG_OF_PERICENTER":"63.4644","OBJECT_ID":"2021-012BG","SITE":"AFETR","CLASSIFICATION_TYPE":"U","EPHEMERIS_TYPE":"0","PERIAPSIS":"545.919"},{"PERIOD":"95.592","APOAPSIS":"548.612","CENTER_NAME":"EARTH","MEAN_MOTION_DOT":"-0.00000174","INCLINATION":"53.0557","OBJECT_TYPE":"PAYLOAD","EPOCH":"2021-11-21T12:06:10.955808","TLE_LINE2":"2 47675  53.0557 255.9605 0002020  60.4323 299.6867 15.06400127 43752","MEAN_MOTION":"15.06400127","MEAN_ANOMALY":"299.6867","TIME_SYSTEM":"UTC","RCS_SIZE":"LARGE","REF_FRAME":"TEME","TLE_LINE1":"1 47675U 21012BH  21325.50429347 -.00000174  00000-0  72018-5 0  9998","RA_OF_ASC_NODE":"255.9605","REV_AT_EPOCH":"4375","OBJECT_NAME":"STARLINK-2078","MEAN_MOTION_DDOT":"0.0000000000000","LAUNCH_DATE":"2021-02-16","COUNTRY_CODE":"US","BSTAR":"0.00000720180000","EPHEMERIS_TYPE":"0","PERIAPSIS":"545.814","CLASSIFICATION_TYPE":"U","SITE":"AFETR","ARG_OF_PERICENTER":"60.4323","OBJECT_ID":"2021-012BH","FILE":"3220686","ELEMENT_SET_NO":"999","NORAD_CAT_ID":"47675","GP_ID":"190204219","SEMIMAJOR_AXIS":"6925.348","DECAY_DATE":null,"ECCENTRICITY":"0.00020200","MEAN_ELEMENT_THEORY":"SGP4"},{"LAUNCH_DATE":"2021-02-16","BSTAR":"-0.00008625000000","COUNTRY_CODE":"US","REF_FRAME":"TEME","RCS_SIZE":"LARGE","TLE_LINE1":"1 47676U 21012BJ  21325.91667824 -.00012772  00000-0 -86250-4 0  9998","RA_OF_ASC_NODE":"156.0099","OBJECT_NAME":"STARLINK-2083","MEAN_MOTION_DDOT":"0.0000000000000","REV_AT_EPOCH":"4466","EPOCH":"2021-11-21T22:00:00.999936","MEAN_MOTION":"15.73245104","TLE_LINE2":"2 47676  53.0532 156.0099 0008372 304.9435 148.5918 15.73245104 44666","TIME_SYSTEM":"UTC","MEAN_ANOMALY":"148.5918","PERIOD":"91.531","MEAN_MOTION_DOT":"-0.00012772","CENTER_NAME":"EARTH","APOAPSIS":"355.264","INCLINATION":"53.0532","OBJECT_TYPE":"PAYLOAD","DECAY_DATE":null,"SEMIMAJOR_AXIS":"6727.767","MEAN_ELEMENT_THEORY":"SGP4","ECCENTRICITY":"0.00083720","FILE":"3220782","ELEMENT_SET_NO":"999","NORAD_CAT_ID":"47676","GP_ID":"190208003","SITE":"AFETR","ARG_OF_PERICENTER":"304.9435","OBJECT_ID":"2021-012BJ","PERIAPSIS":"343.999","EPHEMERIS_TYPE":"0","CLASSIFICATION_TYPE":"U"},{"CLASSIFICATION_TYPE":"U","PERIAPSIS":"545.927","EPHEMERIS_TYPE":"0","ARG_OF_PERICENTER":"69.4896","OBJECT_ID":"2021-012BK","SITE":"AFETR","NORAD_CAT_ID":"47677","GP_ID":"190207243","FILE":"3220746","ELEMENT_SET_NO":"999","DECAY_DATE":null,"SEMIMAJOR_AXIS":"6925.337","MEAN_ELEMENT_THEORY":"SGP4","ECCENTRICITY":"0.00018410","MEAN_MOTION_DOT":"0.00001553","CENTER_NAME":"EARTH","APOAPSIS":"548.477","OBJECT_TYPE":"PAYLOAD","INCLINATION":"53.0559","PERIOD":"95.592","TLE_LINE2":"2 47677  53.0559 274.5350 0001841  69.4896 290.6290 15.06403829 43005","MEAN_MOTION":"15.06403829","TIME_SYSTEM":"UTC","MEAN_ANOMALY":"290.6290","EPOCH":"2021-11-21T19:45:17.456544","RA_OF_ASC_NODE":"274.5350","OBJECT_NAME":"STARLINK-2090","MEAN_MOTION_DDOT":"0.0000000000000","REV_AT_EPOCH":"4300","REF_FRAME":"TEME","RCS_SIZE":"LARGE","TLE_LINE1":"1 47677U 21012BK  21325.82311871  .00001553  00000-0  12313-3 0  9998","BSTAR":"0.00012313000000","COUNTRY_CODE":"US","LAUNCH_DATE":"2021-02-16"}];
